STARLINK-31445          
1 59312U 24056S   26068.76323938 -.00001838  00000+0 -57293-4 0  9991
2 59312  42.9999 237.3767 0001523 276.6676  83.4003 15.27565850111083
FLOCK 4G-27             
1 62641U 25009AJ  26068.75406453  .00012587  00000+0  47455-3 0  9991
2 62641  97.3976 150.8631 0000756 322.4974  37.6212 15.27199247 63710
